AUTCUBE 2               
1 43681U 18084K   26091.94868572  .00004632  00000+0  29291-3 0  9990
2 43681  98.0781 294.0791 0007832 306.5362  53.5144 15.09544069405424
METOP-C                 
1 43689U 18087A   26091.90859442  .00000126  00000+0  77519-4 0  9994
2 43689  98.6717 152.8820 0001858  68.1624 291.9751 14.21504637383994
ES'HAIL 2               
1 43700U 18090A   26091.68561568  .00000136  00000+0  00000+0 0  9993
2 43700   0.0124 233.0689 0001241 157.9206  71.7185  1.00276331 26901
MOHAMMED VI-B           
1 43717U 18095A   26091.96728900  .00000905  00000+0  13536-3 0  9998
2 43717  97.9386 165.3441 0001437  98.7417 261.3956 14.77081403396938
HYSIS                   
1 43719U 18096A   26091.94700713  .00001365  00000+0  19359-3 0  9991
2 43719  97.9903 159.2715 0001609  68.7536 291.3847 14.78615425396155
COSMOS 2530 (RODNIK-S *)
1 43751U 18097A   26091.98454558 -.00000016  00000+0 -18675-3 0  9999
2 43751  82.5088 269.5834 0019363 199.7887 160.2443 12.42879229332825
COSMOS 2531 (RODNIK-S *)
1 43752U 18097B   26091.92824156  .00000043  00000+0  23933-3 0  9990
2 43752  82.5133 270.6516 0016257 218.9371 141.0539 12.42910749332835
COSMOS 2532 (RODNIK-S *)
1 43753U 18097C   26091.95631257  .00000015  00000+0  36394-4 0  9997
2 43753  82.5077 269.4543 0017596 221.2122 138.7630 12.42907182332806
MINXSS-2                
1 43758U 18099A   26091.96129475  .00038289  00000+0  89621-3 0  9993
2 43758  97.4587 166.2881 0008916 174.4785 185.6562 15.41988978402369
SIRION PATHFINDER-2     
1 43759U 18099B   26091.92101445  .00005575  00000+0  31193-3 0  9990
2 43759  97.4342 142.7983 0008531 193.1417 166.9593 15.13821527401083
AISTECHSAT 2            
1 43768U 18099L   26091.87147068  .00007053  00000+0  38488-3 0  9992
2 43768  97.4385 141.5862 0004595 183.5040 176.6161 15.14646580400728
FOX-1CLIFF (AO-95)      
1 43770U 18099N   26091.15378759  .00015792  00000+0  63425-3 0  9997
2 43770  97.4467 151.7540 0007522 254.4369 105.6039 15.25014222401476
2018-099Q               
1 43772U 18099Q   26091.48115563  .00112708  00000+0  12568-2 0  9993
2 43772  97.4252 167.9167 0001633 175.1296 184.9978 15.62439799402608
RANGE-A                 
1 43773U 18099R   26091.85981657  .00005741  00000+0  33110-3 0  9995
2 43773  97.4058 136.6750 0008936 247.1021 112.9268 15.12714380400959
SNUSAT-2                
1 43782U 18099AA  26091.37293503  .00008954  00000+0  41081-3 0  9993
2 43782  97.4149 145.9731 0010264 196.6675 163.4225 15.20609863401359
SNUGLITE                
1 43784U 18099AC  26091.89880486  .00014593  00000+0  57878-3 0  9991
2 43784  97.3954 146.9936 0003184 168.5089 191.6222 15.25471413401681
ITASAT                  
1 43786U 18099AE  26091.12292810  .00009289  00000+0  45869-3 0  9990
2 43786  97.4120 144.1959 0011189 259.1414 100.8561 15.18041457401217
EAGLET-I                
1 43790U 18099AJ  26091.38305805  .00003867  00000+0  22665-3 0  9997
2 43790  97.4322 143.0856 0009755 247.3543 112.6657 15.12330894400720
ESEO                    
1 43792U 18099AL  26091.34307323  .00001451  00000+0  10917-3 0  9996
2 43792  97.4048 132.0001 0010933 231.5420 128.4826 15.03994325400252
THEA                    
1 43796U 18099AQ  26091.93235268  .00021926  00000+0  70172-3 0  9991
2 43796  97.4504 161.0134 0007991 185.5433 174.5722 15.32390294401002
ASTROCAST 0.1           
1 43798U 18099AS  26091.16056532  .00040898  00000+0  87728-3 0  9997
2 43798  97.4424 167.5374 0006603 136.8564 223.3203 15.44597022402521
JY1SAT (JO-97)          
1 43803U 18099AX  26091.43532069  .00016509  00000+0  54991-3 0  9996
2 43803  97.4210 154.1186 0006534 170.3392 189.7976 15.31173587401870
SUOMI-100               
1 43804U 18099AY  26091.89060583  .00014538  00000+0  55553-3 0  9999
2 43804  97.4270 152.6394 0010521 181.3584 178.7628 15.26669269401779
AL-FARABI 2             
1 43805U 18099AZ  26091.21101134  .00247472  00000+0  14809-2 0  9997
2 43805  97.4042 168.4487 0003396 195.3779 164.7384 15.77138593402893
CENTAURI-1              
1 43809U 18099BD  26091.24209426  .00006064  00000+0  32263-3 0  9992
2 43809  97.4310 144.6260 0013301 230.8659 129.1392 15.15541954400847
GLOBAL-2                
1 43812U 18099BG  26091.39104627  .00004072  00000+0  26688-3 0  9990
2 43812  97.3646 131.0886 0007247  66.6087 293.5903 15.08212204400331
SEAHAWK-1               
1 43820U 18099BQ  26091.88013461  .00011055  00000+0  49354-3 0  9992
2 43820  97.4046 145.5688 0007894 206.3326 153.7510 15.21509556400922
SAUDISAT 5A             
1 43831U 18102A   26091.98579340  .00007206  00000+0  27212-3 0  9995
2 43831  97.3143 155.0508 0010933  51.5760 308.6459 15.27250904404044
SAUDISAT 5B             
1 43833U 18102C   26091.95296431  .00006286  00000+0  23557-3 0  9996
2 43833  97.3243 157.9515 0011709  53.1778 307.0534 15.27546289404158
2018-102D               
1 43834U 18102D   26091.94592477  .00057438  00000+0  75049-3 0  9993
2 43834  97.3458 178.1730 0003530 348.9094  11.2084 15.58471930405340
ISAT                    
1 43879U 18111D   26091.34645364  .00066209  00000+0  10140-2 0  9996
2 43879  97.5908  21.3810 0004852 176.2402 183.8888 15.54117556399192
UWE-4                   
1 43880U 18111E   26091.60082343  .00035957  00000+0  85485-3 0  9990
2 43880  97.5861  16.7464 0006349 227.5973 132.4737 15.41553403398969
D-STAR ONE (SPARROW)    
1 43881U 18111F   26091.36836316  .00083546  00000+0  10833-2 0  9992
2 43881  97.6124  26.0017 0001738 163.2326 196.8988 15.58578880399356
JILIN-1 09              
1 43943U 19005B   26091.95550576  .00006317  00000+0  29813-3 0  9990
2 43943  97.4706 187.6281 0002462  36.6777 323.4626 15.19800539397568
JILIN-1 10              
1 43946U 19005E   26091.96106373  .00008336  00000+0  33837-3 0  9990
2 43946  97.4740 190.8411 0008555 176.6843 183.4453 15.24821205397693
EGYPTSAT-A (MISRSAT-A)  
1 44047U 19008A   26091.95848010  .00000813  00000+0  13629-3 0  9995
2 44047  98.0109 157.8453 0001270 101.4058 258.7293 14.72328196382024
EMISAT                  
1 44078U 19018A   26091.90531792  .00000150  00000+0  57005-4 0  9992
2 44078  98.4728 151.0981 0019844  88.0055 272.3408 14.43637983369057
JILIN-1 GAOFEN 3A       
1 44312U 19032C   26091.91478807  .00015256  00000+0  50995-3 0  9990
2 44312  44.9748  56.1683 0004767 240.8244 119.2163 15.30909225376149
WT 1A                   
1 44315U 19032F   26091.94099648  .00411439  00000+0  14516-2 0  9999
2 44315  44.9701 300.6023 0013783 259.4145 100.5208 15.87180102377534
WT 1B                   
1 44316U 19032G   26091.95730957  .00013820  00000+0  54356-3 0  9995
2 44316  44.9692 116.5518 0008982 190.0773 169.9930 15.25610224375432
PROX-1                  
1 44339U 19036A   26091.76297839  .00015811  00000+0  16196-2 0  9991
2 44339  23.9950 264.0260 0005774 229.7074 130.2921 14.88751452362067
NPSAT1                  
1 44340U 19036B   26091.08773700  .00009281  00000+0  13497-2 0  9999
2 44340  24.0002 359.6114 0007732  62.7283 297.4000 14.73820268361105
FORMOSAT 7-3            
1 44343U 19036E   26091.96873539  .00006399  00000+0  37098-3 0  9991
2 44343  24.0002 342.8847 0001142  87.0513 273.0122 15.09193076371713
FORMOSAT 7-1            
1 44349U 19036L   26091.62601895  .00003638  00000+0  28915-3 0  9995
2 44349  23.9973 188.4149 0000910  30.1668 329.8885 14.96163200373174
FORMOSAT 7-4            
1 44350U 19036M   26091.51487029  .00003718  00000+0  29604-3 0  9991
2 44350  23.9983 251.2668 0001298  30.1491 329.9084 14.96156670372574
FORMOSAT 7-2            
1 44351U 19036N   26091.80401401  .00003557  00000+0  28209-3 0  9995
2 44351  23.9986 303.6329 0000787  40.6001 319.4558 14.96163136372136
FORMOSAT 7-6            
1 44353U 19036Q   26091.47068266  .00002995  00000+0  23345-3 0  9999
2 44353  23.9972 126.6991 0000671 291.1133  68.9296 14.96164405370315
FORMOSAT 7-5            
1 44358U 19036V   26091.04791145  .00004175  00000+0  33567-3 0  9995
2 44358  23.9992  68.2944 0000473  51.8351 308.2192 14.96161269370785
METEOR-M2 2             
1 44387U 19038A   26091.95674669 -.00000097  00000+0 -22080-4 0  9990
2 44387  98.9108  78.1334 0000511 177.1623 182.9558 14.24342395350444
COSMOS 2535             
1 44421U 19039A   26092.01587287  .00001584  00000+0  16229-3 0  9994
2 44421  97.5857 123.0731 0009973 104.5218 255.7109 14.91799315365286
GLOBAL-4                
1 44499U 19054E   26091.92141033  .00050484  00000+0  66718-3 0  9991
2 44499  45.0075 314.1695 0005542 195.7483 164.3240 15.57624349368446
ZY-1 02D                
1 44528U 19059A   26091.95211353 -.00000147  00000+0 -36665-4 0  9997
2 44528  98.3264 156.1124 0001702  38.9289 321.2020 14.35458484343406
TAURUS-1 (JINNIUZUO 1)  
1 44530U 19059C   26091.95750641  .00009806  00000+0  15973-2 0  9994
2 44530  98.6333 252.1352 0009198 185.0094 175.1020 14.71195252347438
ZHUHAI-1 03B            
1 44536U 19060C   26091.97035113  .00038950  00000+0  70092-3 0  9990
2 44536  97.5437 245.9191 0008893 231.8258 128.2192 15.49688819364509
ZHUHAI-1 03C            
1 44537U 19060D   26091.92478552  .00173641  00000+0  10643-2 0  9996
2 44537  97.5512 256.1940 0009190 193.1771 166.9255 15.76746305365135
ZHUHAI-1 03D            
1 44538U 19060E   26091.92498250  .00036788  00000+0  77050-3 0  9990
2 44538  97.5288 238.6671 0008369 216.5866 143.4811 15.45310785364282
ZHUHAI-1 03E            
1 44539U 19060F   26091.94987516  .00023386  00000+0  61762-3 0  9994
2 44539  97.5502 239.4512 0004959 295.1975  64.8755 15.38441939364034
ATLAS 5 CENTAUR DEB     
1 44694U 18079BG  26091.06117801 -.00000120  00000+0  00000+0 0  9996
2 44694  13.5428  45.6052 4742310 286.8215  27.7908  1.77433112 45198
GAOFEN-7                
1 44703U 19072A   26091.97100079  .00005289  00000+0  23711-3 0  9998
2 44703  97.2500 156.2771 0013581 305.5916  54.4054 15.21558186356052
